{
  "type": "FeatureCollection",
  "features": [
    {
      "type": "Feature",
      "properties": {
        "norad_id": 32393,
        "name": "COSMOS 2434 (721)",
        "group": "gnss",
        "lat": 9.624386561434061,
        "lon": 13.37408162218652,
        "alt_km": 19130.748995903392,
        "timestamp": "2025-12-17T04:57:44.612525+00:00",
        "meta_object_name": "COSMOS 2434 (721)",
        "meta_object_id": "2007-065A",
        "meta_epoch": "2025-12-15T08:26:38.759136",
        "meta_mean_motion": 2.13101367,
        "meta_eccentricity": 0.00044341,
        "meta_inclination": 64.3148,
        "meta_ra_of_asc_node": 198.1152,
        "meta_arg_of_pericenter": 71.4602,
        "meta_mean_anomaly": 114.7825,
        "meta_ephemeris_type": 0,
        "meta_classification_type": "U",
        "meta_norad_cat_id": 32393,
        "meta_element_set_no": 999,
        "meta_rev_at_epoch": 13985,
        "meta_bstar": 0,
        "meta_mean_motion_dot": 1.05e-06,
        "meta_mean_motion_ddot": 0,
        "tle_line1": "1 32393U 07065A   25349.35183749  .00000105  00000+0  00000+0 0  9995",
        "tle_line2": "2 32393  64.3148 198.1152 0004434  71.4602 114.7825  2.13101367139858"
      },
      "geometry": {
        "type": "Point",
        "coordinates": [
          13.37408162218652,
          9.624386561434061
        ]
      }
    },
    {
      "type": "Feature",
      "properties": {
        "norad_id": 32395,
        "name": "COSMOS 2436 (723)",
        "group": "gnss",
        "lat": -49.777215960629796,
        "lon": 163.45104116642614,
        "alt_km": 19118.161064409247,
        "timestamp": "2025-12-17T04:57:44.612536+00:00",
        "meta_object_name": "COSMOS 2436 (723)",
        "meta_object_id": "2007-065C",
        "meta_epoch": "2025-12-16T08:11:52.503360",
        "meta_mean_motion": 2.13100112,
        "meta_eccentricity": 0.00177699,
        "meta_inclination": 64.3235,
        "meta_ra_of_asc_node": 198.1521,
        "meta_arg_of_pericenter": 9.2217,
        "meta_mean_anomaly": 349.3751,
        "meta_ephemeris_type": 0,
        "meta_classification_type": "U",
        "meta_norad_cat_id": 32395,
        "meta_element_set_no": 999,
        "meta_rev_at_epoch": 13982,
        "meta_bstar": 0,
        "meta_mean_motion_dot": 1.1e-06,
        "meta_mean_motion_ddot": 0,
        "tle_line1": "1 32395U 07065C   25350.34157990  .00000110  00000+0  00000+0 0  9993",
        "tle_line2": "2 32395  64.3235 198.1521 0017769   9.2217 349.3751  2.13100112139821"
      },
      "geometry": {
        "type": "Point",
        "coordinates": [
          163.45104116642614,
          -49.777215960629796
        ]
      }
    },
    {
      "type": "Feature",
      "properties": {
        "norad_id": 32711,
        "name": "GPS BIIRM-6 (PRN 07)",
        "group": "gnss",
        "lat": 25.728275906263917,
        "lon": 177.33017480634706,
        "alt_km": 20628.059101207604,
        "timestamp": "2025-12-17T04:57:44.612548+00:00",
        "meta_object_name": "GPS BIIRM-6 (PRN 07)",
        "meta_object_id": "2008-012A",
        "meta_epoch": "2025-12-16T03:55:52.800384",
        "meta_mean_motion": 2.00565827,
        "meta_eccentricity": 0.0202594,
        "meta_inclination": 54.4775,
        "meta_ra_of_asc_node": 157.2362,
        "meta_arg_of_pericenter": 244.9852,
        "meta_mean_anomaly": 112.9072,
        "meta_ephemeris_type": 0,
        "meta_classification_type": "U",
        "meta_norad_cat_id": 32711,
        "meta_element_set_no": 999,
        "meta_rev_at_epoch": 13008,
        "meta_bstar": 0,
        "meta_mean_motion_dot": 8.9e-07,
        "meta_mean_motion_ddot": 0,
        "tle_line1": "1 32711U 08012A   25350.16380556  .00000089  00000+0  00000+0 0  9999",
        "tle_line2": "2 32711  54.4775 157.2362 0202594 244.9852 112.9072  2.00565827130089"
      },
      "geometry": {
        "type": "Point",
        "coordinates": [
          177.33017480634706,
          25.728275906263917
        ]
      }
    },
    {
      "type": "Feature",
      "properties": {
        "norad_id": 35752,
        "name": "GPS BIIRM-8 (PRN 05)",
        "group": "gnss",
        "lat": 39.87334692847857,
        "lon": 68.77820773831431,
        "alt_km": 20059.367015640015,
        "timestamp": "2025-12-17T04:57:44.612559+00:00",
        "meta_object_name": "GPS BIIRM-8 (PRN 05)",
        "meta_object_id": "2009-043A",
        "meta_epoch": "2025-12-15T22:20:02.106816",
        "meta_mean_motion": 2.00565586,
        "meta_eccentricity": 0.00517182,
        "meta_inclination": 56.0932,
        "meta_ra_of_asc_node": 34.6571,
        "meta_arg_of_pericenter": 81.8462,
        "meta_mean_anomaly": 127.6063,
        "meta_ephemeris_type": 0,
        "meta_classification_type": "U",
        "meta_norad_cat_id": 35752,
        "meta_element_set_no": 999,
        "meta_rev_at_epoch": 11968,
        "meta_bstar": 0,
        "meta_mean_motion_dot": -8.6e-07,
        "meta_mean_motion_ddot": 0,
        "tle_line1": "1 35752U 09043A   25349.93057994 -.00000086  00000+0  00000+0 0  9990",
        "tle_line2": "2 35752  56.0932  34.6571 0051718  81.8462 127.6063  2.00565586119683"
      },
      "geometry": {
        "type": "Point",
        "coordinates": [
          68.77820773831431,
          39.87334692847857
        ]
      }
    },
    {
      "type": "Feature",
      "properties": {
        "norad_id": 36111,
        "name": "COSMOS 2456 (730)",
        "group": "gnss",
        "lat": -30.095734973216945,
        "lon": 61.45930785393608,
        "alt_km": 19126.88131860369,
        "timestamp": "2025-12-17T04:57:44.612571+00:00",
        "meta_object_name": "COSMOS 2456 (730)",
        "meta_object_id": "2009-070A",
        "meta_epoch": "2025-12-16T18:51:14.484384",
        "meta_mean_motion": 2.13103663,
        "meta_eccentricity": 0.00031018,
        "meta_inclination": 64.903,
        "meta_ra_of_asc_node": 77.1993,
        "meta_arg_of_pericenter": 298.2452,
        "meta_mean_anomaly": 65.0199,
        "meta_ephemeris_type": 0,
        "meta_classification_type": "U",
        "meta_norad_cat_id": 36111,
        "meta_element_set_no": 999,
        "meta_rev_at_epoch": 12454,
        "meta_bstar": 0,
        "meta_mean_motion_dot": -5.4e-07,
        "meta_mean_motion_ddot": 0,
        "tle_line1": "1 36111U 09070A   25350.78558431 -.00000054  00000+0  00000+0 0  9992",
        "tle_line2": "2 36111  64.9030  77.1993 0003101 298.2452  65.0199  2.13103663124540"
      },
      "geometry": {
        "type": "Point",
        "coordinates": [
          61.45930785393608,
          -30.095734973216945
        ]
      }
    },
    {
      "type": "Feature",
      "properties": {
        "norad_id": 36112,
        "name": "COSMOS 2457 (733)",
        "group": "gnss",
        "lat": 64.36507119745616,
        "lon": 179.7083851209765,
        "alt_km": 19117.892128793686,
        "timestamp": "2025-12-17T04:57:44.612582+00:00",
        "meta_object_name": "COSMOS 2457 (733)",
        "meta_object_id": "2009-070B",
        "meta_epoch": "2025-12-15T22:24:14.107104",
        "meta_mean_motion": 2.13100894,
        "meta_eccentricity": 0.00046417,
        "meta_inclination": 64.8877,
        "meta_ra_of_asc_node": 77.076,
        "meta_arg_of_pericenter": 159.3644,
        "meta_mean_anomaly": 39.3126,
        "meta_ephemeris_type": 0,
        "meta_classification_type": "U",
        "meta_norad_cat_id": 36112,
        "meta_element_set_no": 999,
        "meta_rev_at_epoch": 12452,
        "meta_bstar": 0,
        "meta_mean_motion_dot": -5.8e-07,
        "meta_mean_motion_ddot": 0,
        "tle_line1": "1 36112U 09070B   25349.93349661 -.00000058  00000+0  00000+0 0  9995",
        "tle_line2": "2 36112  64.8877  77.0760 0004641 159.3644  39.3126  2.13100894124525"
      },
      "geometry": {
        "type": "Point",
        "coordinates": [
          179.7083851209765,
          64.36507119745616
        ]
      }
    },
    {
      "type": "Feature",
      "properties": {
        "norad_id": 36402,
        "name": "COSMOS 2460 (732)",
        "group": "gnss",
        "lat": 65.02937605017267,
        "lon": 62.69177414463104,
        "alt_km": 19129.45367850678,
        "timestamp": "2025-12-17T04:57:44.612593+00:00",
        "meta_object_name": "COSMOS 2460 (732)",
        "meta_object_id": "2010-007C",
        "meta_epoch": "2025-12-15T05:47:00.728160",
        "meta_mean_motion": 2.13106127,
        "meta_eccentricity": 0.00026664,
        "meta_inclination": 65.5278,
        "meta_ra_of_asc_node": 320.6882,
        "meta_arg_of_pericenter": 275.3459,
        "meta_mean_anomaly": 111.58,
        "meta_ephemeris_type": 0,
        "meta_classification_type": "U",
        "meta_norad_cat_id": 36402,
        "meta_element_set_no": 999,
        "meta_rev_at_epoch": 12281,
        "meta_bstar": 0,
        "meta_mean_motion_dot": -6.7e-07,
        "meta_mean_motion_ddot": 0,
        "tle_line1": "1 36402U 10007C   25349.24098065 -.00000067  00000+0  00000+0 0  9992",
        "tle_line2": "2 36402  65.5278 320.6882 0002666 275.3459 111.5800  2.13106127122817"
      },
      "geometry": {
        "type": "Point",
        "coordinates": [
          62.69177414463104,
          65.02937605017267
        ]
      }
    }
  ]
}